{"type": "FeatureCollection", "features": [ {"type": "Feature", "properties": {"norad_id": 36367, "name": "COSMOS 2251 DEB", "group": "cosmos-2251-debris", "lat": 50.91545221323816, "lon": 6.669986790202284, "alt_km": 1102.131542472278, "timestamp": "2025-12-27T02:10:16.586179+00:00", "meta": {"OBJECT_NAME": "COSMOS 2251 DEB", "OBJECT_ID": "1993-036AYU", "EPOCH": "2025-12-24T07:44:10.721184", "MEAN_MOTION": 13.86386722, "ECCENTRICITY": 0.02617345, "INCLINATION": 74.0995, "RA_OF_ASC_NODE": 211.8828, "ARG_OF_PERICENTER": 282.2009, "MEAN_ANOMALY": 74.9918, "EPHEMERIS_TYPE": 0, "CLASSIFICATION_TYPE": "U", "NORAD_CAT_ID": 36367, "ELEMENT_SET_NO": 999, "REV_AT_EPOCH": 57690, "BSTAR": 0.0017134049, "MEAN_MOTION_DOT": 2.573e-05, "MEAN_MOTION_DDOT": 0}, "tle": {"line1": "1 36367U 93036AYU 25358.32234631  .00002573  00000+0  17134-2 0  9997", "line2": "2 36367  74.0995 211.8828 0261734 282.2009  74.9918 13.86386722576908"}}, "geometry": {"type": "Point", "coordinates": [6.669986790202284, 50.91545221323816]}}, {"type": "Feature", "properties": {"norad_id": 36369, "name": "COSMOS 2251 DEB", "group": "cosmos-2251-debris", "lat": 61.29095712971211, "lon": -168.78136232694877, "alt_km": 635.4688973629127, "timestamp": "2025-12-27T02:10:16.586189+00:00", "meta": {"OBJECT_NAME": "COSMOS 2251 DEB", "OBJECT_ID": "1993-036AYW", "EPOCH": "2025-12-21T10:25:50.498400", "MEAN_MOTION": 14.73682344, "ECCENTRICITY": 0.0010476, "INCLINATION": 74.0314, "RA_OF_ASC_NODE": 53.7689, "ARG_OF_PERICENTER": 128.4088, "MEAN_ANOMALY": 231.8027, "EPHEMERIS_TYPE": 0, "CLASSIFICATION_TYPE": "U", "NORAD_CAT_ID": 36369, "ELEMENT_SET_NO": 999, "REV_AT_EPOCH": 86050, "BSTAR": 0.00084133, "MEAN_MOTION_DOT": 5.466e-05, "MEAN_MOTION_DDOT": 0}, "tle": {"line1": "1 36369U 93036AYW 25355.43461225  .00005466  00000+0  84133-3 0  9997", "line2": "2 36369  74.0314  53.7689 0010476 128.4088 231.8027 14.73682344860509"}}, "geometry": {"type": "Point", "coordinates": [-168.78136232694877, 61.29095712971211]}}, {"type": "Feature", "properties": {"norad_id": 36371, "name": "COSMOS 2251 DEB", "group": "cosmos-2251-debris", "lat": -51.26438823325178, "lon": -25.420899037764602, "alt_km": 661.8302764560312, "timestamp": "2025-12-27T02:10:16.586200+00:00", "meta": {"OBJECT_NAME": "COSMOS 2251 DEB", "OBJECT_ID": "1993-036AYY", "EPOCH": "2025-12-26T15:19:00.134400", "MEAN_MOTION": 14.70924316, "ECCENTRICITY": 0.000828, "INCLINATION": 74.013, "RA_OF_ASC_NODE": 134.5179, "ARG_OF_PERICENTER": 174.2139, "MEAN_ANOMALY": 185.913, "EPHEMERIS_TYPE": 0, "CLASSIFICATION_TYPE": "U", "NORAD_CAT_ID": 36371, "ELEMENT_SET_NO": 999, "REV_AT_EPOCH": 71649, "BSTAR": 0.0023591, "MEAN_MOTION_DOT": 0.00014457, "MEAN_MOTION_DDOT": 0}, "tle": {"line1": "1 36371U 93036AYY 25360.63819600  .00014457  00000+0  23591-2 0  9992", "line2": "2 36371  74.0130 134.5179 0008280 174.2139 185.9130 14.70924316716493"}}, "geometry": {"type": "Point", "coordinates": [-25.420899037764602, -51.26438823325178]}}, {"type": "Feature", "properties": {"norad_id": 36379, "name": "COSMOS 2251 DEB", "group": "cosmos-2251-debris", "lat": 44.912264267694624, "lon": -62.95266069710914, "alt_km": 735.181062973099, "timestamp": "2025-12-27T02:10:16.586210+00:00", "meta": {"OBJECT_NAME": "COSMOS 2251 DEB", "OBJECT_ID": "1993-036AZG", "EPOCH": "2025-12-21T02:14:38.502816", "MEAN_MOTION": 14.36091919, "ECCENTRICITY": 0.00448164, "INCLINATION": 74.0129, "RA_OF_ASC_NODE": 291.4624, "ARG_OF_PERICENTER": 57.9805, "MEAN_ANOMALY": 317.791, "EPHEMERIS_TYPE": 0, "CLASSIFICATION_TYPE": "U", "NORAD_CAT_ID": 36379, "ELEMENT_SET_NO": 999, "REV_AT_EPOCH": 64948, "BSTAR": 0.00021634378, "MEAN_MOTION_DOT": 6.11e-06, "MEAN_MOTION_DDOT": 0}, "tle": {"line1": "1 36379U 93036AZG 25355.09350119  .00000611  00000+0  21634-3 0  9993", "line2": "2 36379  74.0129 291.4624 0044816  57.9805 317.7910 14.36091919649480"}}, "geometry": {"type": "Point", "coordinates": [-62.95266069710914, 44.912264267694624]}}, {"type": "Feature", "properties": {"norad_id": 36385, "name": "COSMOS 2251 DEB", "group": "cosmos-2251-debris", "lat": 73.90667854944938, "lon": -148.28677656978044, "alt_km": 731.3820631553745, "timestamp": "2025-12-27T02:10:16.586220+00:00", "meta": {"OBJECT_NAME": "COSMOS 2251 DEB", "OBJECT_ID": "1993-036AZN", "EPOCH": "2025-12-25T18:47:37.629888", "MEAN_MOTION": 14.72809922, "ECCENTRICITY": 0.01417407, "INCLINATION": 73.9695, "RA_OF_ASC_NODE": 129.0297, "ARG_OF_PERICENTER": 300.5644, "MEAN_ANOMALY": 58.1605, "EPHEMERIS_TYPE": 0, "CLASSIFICATION_TYPE": "U", "NORAD_CAT_ID": 36385, "ELEMENT_SET_NO": 999, "REV_AT_EPOCH": 85294, "BSTAR": 0.0015922173, "MEAN_MOTION_DOT": 0.00011929, "MEAN_MOTION_DDOT": 0}, "tle": {"line1": "1 36385U 93036AZN 25359.78307442  .00011929  00000+0  15922-2 0  9997", "line2": "2 36385  73.9695 129.0297 0141740 300.5644  58.1605 14.72809922852942"}}, "geometry": {"type": "Point", "coordinates": [-148.28677656978044, 73.90667854944938]}}, {"type": "Feature", "properties": {"norad_id": 36420, "name": "COSMOS 2251 DEB", "group": "cosmos-2251-debris", "lat": -30.058860707024795, "lon": -120.43083706377818, "alt_km": 761.1665403591123, "timestamp": "2025-12-27T02:10:16.586230+00:00", "meta": {"OBJECT_NAME": "COSMOS 2251 DEB", "OBJECT_ID": "1993-036AZT", "EPOCH": "2025-12-21T02:55:38.256384", "MEAN_MOTION": 14.36907864, "ECCENTRICITY": 0.00184562, "INCLINATION": 74.0376, "RA_OF_ASC_NODE": 260.0713, "ARG_OF_PERICENTER": 346.0954, "MEAN_ANOMALY": 80.7548, "EPHEMERIS_TYPE": 0, "CLASSIFICATION_TYPE": "U", "NORAD_CAT_ID": 36420, "ELEMENT_SET_NO": 999, "REV_AT_EPOCH": 85157, "BSTAR": 0.00010545411, "MEAN_MOTION_DOT": 2.86e-06, "MEAN_MOTION_DDOT": 0}, "tle": {"line1": "1 36420U 93036AZT 25355.12197056  .00000286  00000+0  10545-3 0  9990", "line2": "2 36420  74.0376 260.0713 0018456 346.0954  80.7548 14.36907864851574"}}, "geometry": {"type": "Point", "coordinates": [-120.43083706377818, -30.058860707024795]}}, {"type": "Feature", "properties": {"norad_id": 36430, "name": "COSMOS 2251 DEB", "group": "cosmos-2251-debris", "lat": -56.517003337457524, "lon": -71.81860861125442, "alt_km": 736.6186289816242, "timestamp": "2025-12-27T02:10:16.586240+00:00", "meta": {"OBJECT_NAME": "COSMOS 2251 DEB", "OBJECT_ID": "1993-036BAD", "EPOCH": "2025-12-22T23:31:00.132096", "MEAN_MOTION": 14.27817368, "ECCENTRICITY": 0.00978453, "INCLINATION": 74.0045, "RA_OF_ASC_NODE": 89.9408, "ARG_OF_PERICENTER": 238.1166, "MEAN_ANOMALY": 121.0434, "EPHEMERIS_TYPE": 0, "CLASSIFICATION_TYPE": "U", "NORAD_CAT_ID": 36430, "ELEMENT_SET_NO": 999, "REV_AT_EPOCH": 64703, "BSTAR": 0.00047484504, "MEAN_MOTION_DOT": 1.209e-05, "MEAN_MOTION_DDOT": 0}, "tle": {"line1": "1 36430U 93036BAD 25356.97986264  .00001209  00000+0  47485-3 0  9991", "line2": "2 36430  74.0045  89.9408 0097845 238.1166 121.0434 14.27817368647038"}}, "geometry": {"type": "Point", "coordinates": [-71.81860861125442, -56.517003337457524]}}, {"type": "Feature", "properties": {"norad_id": 36437, "name": "COSMOS 2251 DEB", "group": "cosmos-2251-debris", "lat": -51.92446364608002, "lon": -15.592986297671965, "alt_km": 658.8107997697653, "timestamp": "2025-12-27T02:10:16.586251+00:00", "meta": {"OBJECT_NAME": "COSMOS 2251 DEB", "OBJECT_ID": "1993-036BAL", "EPOCH": "2025-12-26T18:15:34.003872", "MEAN_MOTION": 14.70914631, "ECCENTRICITY": 0.0022944, "INCLINATION": 73.9426, "RA_OF_ASC_NODE": 6.6213, "ARG_OF_PERICENTER": 237.1845, "MEAN_ANOMALY": 122.7117, "EPHEMERIS_TYPE": 0, "CLASSIFICATION_TYPE": "U", "NORAD_CAT_ID": 36437, "ELEMENT_SET_NO": 999, "REV_AT_EPOCH": 66257, "BSTAR": 0.0014294, "MEAN_MOTION_DOT": 8.767e-05, "MEAN_MOTION_DDOT": 0}, "tle": {"line1": "1 36437U 93036BAL 25360.76081023  .00008767  00000+0  14294-2 0  9996", "line2": "2 36437  73.9426   6.6213 0022944 237.1845 122.7117 14.70914631662578"}}, "geometry": {"type": "Point", "coordinates": [-15.592986297671965, -51.92446364608002]}}, {"type": "Feature", "properties": {"norad_id": 36439, "name": "COSMOS 2251 DEB", "group": "cosmos-2251-debris", "lat": 5.872827094468852, "lon": 15.507435566031186, "alt_km": 786.4522596409979, "timestamp": "2025-12-27T02:10:16.586261+00:00", "meta": {"OBJECT_NAME": "COSMOS 2251 DEB", "OBJECT_ID": "1993-036BAN", "EPOCH": "2025-12-24T18:55:29.525952", "MEAN_MOTION": 13.47827423, "ECCENTRICITY": 0.04286024, "INCLINATION": 73.9682, "RA_OF_ASC_NODE": 17.4852, "ARG_OF_PERICENTER": 346.947, "MEAN_ANOMALY": 12.0809, "EPHEMERIS_TYPE": 0, "CLASSIFICATION_TYPE": "U", "NORAD_CAT_ID": 36439, "ELEMENT_SET_NO": 999, "REV_AT_EPOCH": 58775, "BSTAR": 0.001418873, "MEAN_MOTION_DOT": 1.511e-05, "MEAN_MOTION_DDOT": 0}, "tle": {"line1": "1 36439U 93036BAN 25358.78853618  .00001511  00000+0  14189-2 0  9997", "line2": "2 36439  73.9682  17.4852 0428602 346.9470  12.0809 13.47827423587757"}}, "geometry": {"type": "Point", "coordinates": [15.507435566031186, 5.872827094468852]}}, {"type": "Feature", "properties": {"norad_id": 36441, "name": "COSMOS 2251 DEB", "group": "cosmos-2251-debris", "lat": 66.10161065367222, "lon": 99.02534669331376, "alt_km": 492.1393301576618, "timestamp": "2025-12-27T02:10:16.586271+00:00", "meta": {"OBJECT_NAME": "COSMOS 2251 DEB", "OBJECT_ID": "1993-036BAQ", "EPOCH": "2025-12-24T06:47:11.580288", "MEAN_MOTION": 15.06947099, "ECCENTRICITY": 0.01081187, "INCLINATION": 73.8372, "RA_OF_ASC_NODE": 325.7458, "ARG_OF_PERICENTER": 62.0973, "MEAN_ANOMALY": 299.1114, "EPHEMERIS_TYPE": 0, "CLASSIFICATION_TYPE": "U", "NORAD_CAT_ID": 36441, "ELEMENT_SET_NO": 999, "REV_AT_EPOCH": 87139, "BSTAR": 0.00056857521, "MEAN_MOTION_DOT": 9.688e-05, "MEAN_MOTION_DDOT": 0}, "tle": {"line1": "1 36441U 93036BAQ 25358.28277292  .00009688  00000+0  56858-3 0  9996", "line2": "2 36441  73.8372 325.7458 0108118  62.0973 299.1114 15.06947099871395"}}, "geometry": {"type": "Point", "coordinates": [99.02534669331376, 66.10161065367222]}}]}